[{"OBJECT_NAME":"STARLINK-32846","OBJECT_ID":"2025-022P","EPOCH":"2026-03-09T10:37:40.547424","MEAN_MOTION":15.30198612,"ECCENTRICITY":0.00013975,"INCLINATION":53.1582,"RA_OF_ASC_NODE":130.6518,"ARG_OF_PERICENTER":79.6401,"MEAN_ANOMALY":280.4757,"EPHEMERIS_TYPE":0,"CLASSIFICATION_TYPE":"U","NORAD_CAT_ID":62867,"ELEMENT_SET_NO":999,"REV_AT_EPOCH":6186,"BSTAR":0.00063014654,"MEAN_MOTION_DOT":0.00018349,"MEAN_MOTION_DDOT":0},{"OBJECT_NAME":"USA 40 R\/B DEB","OBJECT_ID":"1989-061BF","EPOCH":"2026-03-09T11:01:29.535168","MEAN_MOTION":9.58078532,"ECCENTRICITY":0.26908089,"INCLINATION":57,"RA_OF_ASC_NODE":145.4523,"ARG_OF_PERICENTER":62.5186,"MEAN_ANOMALY":322.3123,"EPHEMERIS_TYPE":0,"CLASSIFICATION_TYPE":"U","NORAD_CAT_ID":23383,"ELEMENT_SET_NO":999,"REV_AT_EPOCH":23463,"BSTAR":0.0027511821,"MEAN_MOTION_DOT":6.281e-5,"MEAN_MOTION_DDOT":0}]
